[{"OBJECT_NAME":"SKYSAT-C5","OBJECT_ID":"2016-058C","EPOCH":"2026-03-09T16:40:58.853568","MEAN_MOTION":15.34290188,"ECCENTRICITY":0.00017286,"INCLINATION":97.0614,"RA_OF_ASC_NODE":113.7598,"ARG_OF_PERICENTER":84.5722,"MEAN_ANOMALY":275.5719,"EPHEMERIS_TYPE":0,"CLASSIFICATION_TYPE":"U","NORAD_CAT_ID":41772,"ELEMENT_SET_NO":999,"REV_AT_EPOCH":52849,"BSTAR":0.00029009039,"MEAN_MOTION_DOT":9.558e-5,"MEAN_MOTION_DDOT":0},{"OBJECT_NAME":"STARLINK-30131","OBJECT_ID":"2023-079L","EPOCH":"2026-03-09T22:00:01.999584","MEAN_MOTION":15.17301963,"ECCENTRICITY":0.00020252,"INCLINATION":43.0004,"RA_OF_ASC_NODE":79.5928,"ARG_OF_PERICENTER":274.1276,"MEAN_ANOMALY":22.6014,"EPHEMERIS_TYPE":0,"CLASSIFICATION_TYPE":"U","NORAD_CAT_ID":56833,"ELEMENT_SET_NO":999,"REV_AT_EPOCH":578,"BSTAR":0.061566052,"MEAN_MOTION_DOT":0.0135934,"MEAN_MOTION_DDOT":0}]
